STARLINK-3959           
1 52564U 22051AH  24292.89123669  .00000143  00000+0  27063-4 0  9994
2 52564  53.2183 249.2342 0001641 108.3017 251.8153 15.08843437134864
STARLINK-3911           
1 52565U 22051AJ  24292.57701829  .00001066  00000+0  85056-4 0  9991
2 52565  53.2169 235.6397 0001520  86.0087 274.1078 15.08846582135020
STARLINK-3938           
1 52566U 22051AK  24292.60324321  .00002427  00000+0  17053-3 0  9997
2 52566  53.2173 250.5198 0001454  96.9896 263.1262 15.08839802134822
STARLINK-3929           
1 52567U 22051AL  24292.83462219  .00003765  00000+0  25448-3 0  9995
2 52567  53.2164 234.4817 0001258  88.1875 271.9262 15.08845861135060
STARLINK-3930           
1 52568U 22051AM  24292.55861817  .00001116  00000+0  88161-4 0  9992
2 52568  53.2183 235.7206 0001456  87.1277 272.9882 15.08845054135022
STARLINK-3927           
1 52569U 22051AN  24292.83093949  .00001386  00000+0  10516-3 0  9994
2 52569  53.2167 234.4975 0001427  85.6950 274.4206 15.08845898135060
STARLINK-3924           
1 52570U 22051AP  24292.22374160  .00001653  00000+0  12192-3 0  9995
2 52570  53.2164 237.2215 0001922  93.4904 266.6308 15.08842356135043
STARLINK-3901           
1 52574U 22051AQ  24292.82726102  .00001700  00000+0  12487-3 0  9992
2 52574  53.2190 234.5152 0001661  86.5738 273.5444 15.08843597135062
STARLINK-3920           
1 52575U 22051AR  24292.55126085  .00000800  00000+0  68329-4 0  9994
2 52575  53.2170 235.7521 0001561  92.3673 267.7498 15.08841155135024
STARLINK-3932           
1 52576U 22051AS  24292.54485116  .00001545  00000+0  11515-3 0  9998
2 52576  53.2176 235.7824 0001310  91.3540 268.7602 15.08846202135027
STARLINK-3836           
1 52577U 22051AT  24292.59588190  .00000138  00000+0  26765-4 0  9991
2 52577  53.2178 250.5521 0001568  93.1702 266.9470 15.08841419134829
STARLINK-3833           
1 52578U 22051AU  24292.59956190  .00001443  00000+0  10872-3 0  9992
2 52578  53.2179 250.5369 0001598  89.5600 270.5575 15.08842024134820
STARLINK-3893           
1 52579U 22051AV  24292.91972161  .00003166  00000+0  21693-3 0  9992
2 52579  53.2174 249.0987 0001508  97.3835 262.7328 15.08840386134876
STARLINK-3919           
1 52580U 22051AW  24292.92436079  .00001151  00000+0  90412-4 0  9996
2 52580  53.2192 249.0954 0001487 103.7939 256.3218 15.08838749134872
STARLINK-3915           
1 52581U 22051AX  24292.87142268  .00002146  00000+0  15291-3 0  9991
2 52581  53.2166 234.3099 0001298  83.5428 276.5712 15.08837910135074
STARLINK-3886           
1 52582U 22051AY  24292.81254487  .00000425  00000+0  44814-4 0  9995
2 52582  53.2174 234.5831 0001714  98.9250 261.1936 15.08835768135062
STARLINK-3895           
1 52583U 22051AZ  24292.86774294  .00003196  00000+0  21879-3 0  9997
2 52583  53.2174 234.3283 0001323  92.5850 267.5293 15.08841355135070
STARLINK-3922           
1 52584U 22051BA  24292.54389586  .00003775  00000+0  25510-3 0  9998
2 52584  53.2172 235.7871 0001245  94.8105 265.3029 15.08850298135022
STARLINK-3906           
1 52585U 22051BB  24292.12805111  .00002274  00000+0  16091-3 0  9997
2 52585  53.2163 237.6139 0001555 103.7498 256.3667 15.08845290134966
STARLINK-3910           
1 52586U 22051BC  24292.86406156  .00002427  00000+0  17053-3 0  9994
2 52586  53.2168 234.3449 0001388 105.5403 254.5742 15.08842793135072
STARLINK-3867           
1 52587U 22051BD  24292.84292116  .00004727  00000+0  31487-3 0  9994
2 52587  53.2160 234.2981 0001366 110.2865 249.8274 15.08844412135073
STARLINK-3917           
1 52588U 22051BE  24292.58805898  .00007304  00000+0  47639-3 0  9993
2 52588  53.2165 235.5857 0001580  88.9418 271.1756 15.08849688135037
STARLINK-4019           
1 52598U 22052A   24292.62623306  .00002048  00000+0  14674-3 0  9995
2 52598  53.2174  40.4128 0001337 106.1718 253.9421 15.08839937135031
STARLINK-4024           
1 52599U 22052B   24292.61383363  .00007475  00000+0  48706-3 0  9993
2 52599  53.2170  35.5765 0001475  85.3929 274.7232 15.08852825135105
STARLINK-4026           
1 52600U 22052C   24292.59174182  .00002224  00000+0  15774-3 0  9996
2 52600  53.2185  35.5708 0001273 100.8227 259.2909 15.08841652135106
STARLINK-4027           
1 52601U 22052D   24292.46662548 -.00000393  00000+0 -66055-5 0  9998
2 52601  53.2167  36.1302 0001318  91.7298 268.3845 15.08831393135088
STARLINK-4012           
1 52602U 22052E   24292.59542454  .00002067  00000+0  14791-3 0  9992
2 52602  53.2181  35.5552 0001439  99.3635 260.7520 15.08837452135109
STARLINK-4016           
1 52603U 22052F   24292.64789839  .00002465  00000+0  17289-3 0  9996
2 52603  53.2182  35.3241 0001355  95.3684 264.7462 15.08839542135113
STARLINK-4013           
1 52604U 22052G   24292.65430041  .00006412  00000+0  42046-3 0  9991
2 52604  53.2165  35.2867 0001316  88.3681 271.7462 15.08850295134311
STARLINK-4000           
1 52605U 22052H   24292.66765171  .00001702  00000+0  12499-3 0  9994
2 52605  53.2164  40.0056 0001446  96.5181 263.5976 15.08839824134241
STARLINK-3928           
1 52606U 22052J   24292.65062152  .00006599  00000+0  43222-3 0  9990
2 52606  53.2176  35.3020 0001083  77.8862 282.2251 15.08846300134317
STARLINK-3947           
1 52607U 22052K   24292.48368166  .00005781  00000+0  38090-3 0  9995
2 52607  53.2175  41.0649 0001484 110.4296 249.6855 15.08850013134209
STARLINK-3979           
1 52608U 22052L   24292.57702068  .00002178  00000+0  15486-3 0  9990
2 52608  53.2173  35.6348 0001451  93.2370 266.8788 15.08840234134309
STARLINK-3997           
1 52609U 22052M   24292.69845491  .00001156  00000+0  90715-4 0  9996
2 52609  53.2170  35.0390 0001241  96.7806 263.3328 15.08841068134327
STARLINK-3998           
1 52610U 22052N   24292.48641327  .00001491  00000+0  11180-3 0  9997
2 52610  53.2187  41.0437 0001004  93.5151 266.5956 15.08826646134216
STARLINK-3980           
1 52611U 22052P   24292.67776252  .00004080  00000+0  27427-3 0  9993
2 52611  53.2183  40.1815 0001409  93.5825 266.5329 15.08842476134246
STARLINK-4002           
1 52612U 22052Q   24292.70582399  .00002502  00000+0  17526-3 0  9991
2 52612  53.2169  35.0538 0001527 102.9552 257.1611 15.08839751134320
STARLINK-3982           
1 52614U 22052S   24292.55954408 -.00000594  00000+0 -19215-4 0  9999
2 52614  53.2175  25.7150 0001460 100.0299 260.0858 15.08828951134436
STARLINK-4011           
1 52615U 22052T   24292.60783935  .00006469  00000+0  42412-3 0  9990
2 52615  53.2153  40.4946 0001191  76.9750 283.1375 15.08843564134228
STARLINK-4015           
1 52616U 22052U   24292.94962252  .00000999  00000+0  80832-4 0  9990
2 52616  53.2169  23.9628 0001393  98.1367 261.9784 15.08841901134493
STARLINK-3996           
1 52617U 22052V   24292.61106129  .00000824  00000+0  69889-4 0  9994
2 52617  53.2165  25.4820 0001609  96.6178 263.4997 15.08837718134432
STARLINK-3983           
1 52618U 22052W   24292.61474191  .00000764  00000+0  66069-4 0  9992
2 52618  53.2172  25.4663 0001430  97.0242 263.0913 15.08836905134436
STARLINK-3741           
1 52619U 22052X   24292.60737378  .00000879  00000+0  73336-4 0  9993
2 52619  53.2172  25.4871 0001506 103.1479 256.9681 15.08842367134435
STARLINK-3975           
1 52620U 22052Y   24292.60416920  .00000458  00000+0  46848-4 0  9993
2 52620  53.2174  40.5141 0001162  85.2978 274.8147 15.08830694134222
STARLINK-3984           
1 52621U 22052Z   24292.53378064  .00004999  00000+0  33191-3 0  9992
2 52621  53.2162  25.8309 0001286  86.8279 273.2860 15.08846511134422
STARLINK-4008           
1 52622U 22052AA  24292.50112503  .00000258  00000+0  34339-4 0  9994
2 52622  53.2174  40.9759 0001666  73.5356 286.5819 15.08835059134217
STARLINK-3986           
1 52623U 22052AB  24292.53010049  .00010541  00000+0  67905-3 0  9990
2 52623  53.2186  25.8451 0001142  85.5177 274.5945 15.08859574134423
STARLINK-4009           
1 52624U 22052AC  24292.53841034  .00000716  00000+0  63092-4 0  9994
2 52624  53.2166  25.7939 0001097  72.2440 287.8672 15.08839334134423
STARLINK-3988           
1 52625U 22052AD  24292.59266455  .00000138  00000+0  26750-4 0  9997
2 52625  53.2179  25.5635 0001784 106.3254 253.7934 15.08835020134436
STARLINK-3990           
1 52626U 22052AE  24292.53745991  .00001548  00000+0  11535-3 0  9999
2 52626  53.2168  25.8131 0001476  92.7409 267.3752 15.08840636134424
STARLINK-3992           
1 52627U 22052AF  24292.58162801 -.00000931  00000+0 -40445-4 0  9998
2 52627  53.2176  25.6136 0001428 109.7704 250.3442 15.08836493134447
STARLINK-4001           
1 52628U 22052AG  24292.69616133  .00003283  00000+0  22428-3 0  9994
2 52628  53.2140  40.1022 0001597  91.0387 269.0789 15.08841680134245
STARLINK-4022           
1 52629U 22052AH  24292.64050230  .00000457  00000+0  46817-4 0  9999
2 52629  53.2179  25.3107 0001425  89.0655 271.0501 15.08836096134444
STARLINK-3989           
1 52630U 22052AJ  24292.58898805 -.00000572  00000+0 -17859-4 0  9996
2 52630  53.2184  25.5790 0001755  95.4548 264.6645 15.08834211134433
STARLINK-3794           
1 52631U 22052AK  24292.64146018  .00002991  00000+0  20596-3 0  9992
2 52631  53.2195  25.3580 0001715  93.0626 267.0562 15.08841324134458
STARLINK-3995           
1 52632U 22052AL  24292.65155554  .00013502  00000+0  86579-3 0  9992
2 52632  53.2190  25.2995 0001911 100.8351 259.2856 15.08797458134450
STARLINK-3994           
1 52633U 22052AM  24292.69570302  .00005426  00000+0  35876-3 0  9999
2 52633  53.2181  25.1024 0001478  97.5246 262.5914 15.08838807134463
STARLINK-3974           
1 52634U 22052AN  24292.64418980  .00000828  00000+0  70126-4 0  9997
2 52634  53.2180  25.3609 0001635  81.6029 278.5148 15.08832526134448
STARLINK-3978           
1 52635U 22052AP  24292.94317659  .00001620  00000+0  11981-3 0  9996
2 52635  53.2175  13.9908 0001223  94.3669 265.7463 15.08849293134630
